{
  "norad_id": 49757,
  "name": "STARLINK-3197",
  "history": [
    {
      "epoch": "2026-03-28T15:00:30.021408Z",
      "apogee_km": 540.7578901558963,
      "perigee_km": 538.7475514030384,
      "latitude_deg": -2.9906561499031432e-05,
      "longitude_deg": 2.955482153844185,
      "height_km": 540.5911224850379,
      "semi_major_axis_km": 6917.889720779467,
      "eccentricity": 0.0001453,
      "inclination_deg": 53.2194,
      "raan_deg": 54.1237,
      "arg_perigee_deg": 86.7266,
      "mean_anomaly_deg": 273.3892,
      "mean_motion_rev_day": 15.08836947
    },
    {
      "epoch": "2026-03-29T03:43:35.224320Z",
      "apogee_km": 540.7131812034013,
      "perigee_km": 538.7872414037747,
      "latitude_deg": 3.810333935141256e-05,
      "longitude_deg": 169.28323955361896,
      "height_km": 540.6083942709722,
      "semi_major_axis_km": 6917.887211303588,
      "eccentricity": 0.0001392,
      "inclination_deg": 53.2187,
      "raan_deg": 51.7454,
      "arg_perigee_deg": 87.7615,
      "mean_anomaly_deg": 272.3537,
      "mean_motion_rev_day": 15.08837768
    },
    {
      "epoch": "2026-03-30T03:34:21.547200Z",
      "apogee_km": 540.7050520817111,
      "perigee_km": 538.7376131719129,
      "latitude_deg": 4.841047239412765e-06,
      "longitude_deg": 166.15107475697886,
      "height_km": 540.5757629099744,
      "semi_major_axis_km": 6917.858332626812,
      "eccentricity": 0.0001422,
      "inclination_deg": 53.2182,
      "raan_deg": 47.2856,
      "arg_perigee_deg": 87.595,
      "mean_anomaly_deg": 272.5205,
      "mean_motion_rev_day": 15.08847216
    },
    {
      "epoch": "2026-03-30T03:34:21.548064Z",
      "apogee_km": 540.7050520817111,
      "perigee_km": 538.7376131719129,
      "latitude_deg": 4.841047564031986e-06,
      "longitude_deg": 166.15107114712328,
      "height_km": 540.5757629099703,
      "semi_major_axis_km": 6917.858332626812,
      "eccentricity": 0.0001422,
      "inclination_deg": 53.2182,
      "raan_deg": 47.2856,
      "arg_perigee_deg": 87.595,
      "mean_anomaly_deg": 272.5205,
      "mean_motion_rev_day": 15.08847216
    },
    {
      "epoch": "2026-03-30T14:42:03.671136Z",
      "apogee_km": 540.6928430875514,
      "perigee_km": 538.7759009303691,
      "latitude_deg": 2.521394401332821e-05,
      "longitude_deg": -3.31265178429954,
      "height_km": 540.5804578461583,
      "semi_major_axis_km": 6917.87137200896,
      "eccentricity": 0.00013855,
      "inclination_deg": 53.2185,
      "raan_deg": 45.2044,
      "arg_perigee_deg": 87.0275,
      "mean_anomaly_deg": 273.0876,
      "mean_motion_rev_day": 15.0884295
    },
    {
      "epoch": "2026-03-30T21:03:36.734400Z",
      "apogee_km": 540.7630171840738,
      "perigee_km": 538.753091954919,
      "latitude_deg": -1.4099185133632827e-05,
      "longitude_deg": -100.15050672401175,
      "height_km": 540.5832285373705,
      "semi_major_axis_km": 6917.895054569496,
      "eccentricity": 0.00014527,
      "inclination_deg": 53.2179,
      "raan_deg": 44.0155,
      "arg_perigee_deg": 85.9794,
      "mean_anomaly_deg": 274.1364,
      "mean_motion_rev_day": 15.08835202
    },
    {
      "epoch": "2026-03-31T06:35:55.385376Z",
      "apogee_km": 540.7583353676546,
      "perigee_km": 538.7355461033831,
      "latitude_deg": 5.7878269391938855e-05,
      "longitude_deg": 114.59510206100704,
      "height_km": 540.714117349785,
      "semi_major_axis_km": 6917.883940735518,
      "eccentricity": 0.0001462,
      "inclination_deg": 53.2188,
      "raan_deg": 42.2305,
      "arg_perigee_deg": 94.0521,
      "mean_anomaly_deg": 266.0639,
      "mean_motion_rev_day": 15.08838838
    },
    {
      "epoch": "2026-04-01T12:48:15.485184Z",
      "apogee_km": 540.583813438212,
      "perigee_km": 538.9401206436423,
      "latitude_deg": -3.6426032666773535e-05,
      "longitude_deg": 14.621985196083633,
      "height_km": 540.5692651853723,
      "semi_major_axis_km": 6917.898967040926,
      "eccentricity": 0.0001188,
      "inclination_deg": 53.2179,
      "raan_deg": 36.5817,
      "arg_perigee_deg": 83.8033,
      "mean_anomaly_deg": 276.3094,
      "mean_motion_rev_day": 15.08833922
    },
    {
      "epoch": "2026-04-02T19:00:34.949088Z",
      "apogee_km": 540.6800447810301,
      "perigee_km": 538.8331055543313,
      "latitude_deg": -6.636246287850747e-05,
      "longitude_deg": -85.34982750397363,
      "height_km": 540.5969241107738,
      "semi_major_axis_km": 6917.89357516768,
      "eccentricity": 0.00013349,
      "inclination_deg": 53.2187,
      "raan_deg": 30.9315,
      "arg_perigee_deg": 86.5518,
      "mean_anomaly_deg": 273.5626,
      "mean_motion_rev_day": 15.08835686
    },
    {
      "epoch": "2026-04-03T18:51:21.112992Z",
      "apogee_km": 540.6771872459822,
      "perigee_km": 538.7429572045885,
      "latitude_deg": 5.340805428690526e-05,
      "longitude_deg": -88.48181482463146,
      "height_km": 540.5936444027888,
      "semi_major_axis_km": 6917.847072225285,
      "eccentricity": 0.0001398,
      "inclination_deg": 53.2188,
      "raan_deg": 26.4711,
      "arg_perigee_deg": 89.2756,
      "mean_anomaly_deg": 270.8397,
      "mean_motion_rev_day": 15.088509
    },
    {
      "epoch": "2026-04-04T12:20:36.886848Z",
      "apogee_km": 540.6438771050416,
      "perigee_km": 538.8775994545049,
      "latitude_deg": -8.556477178309764e-06,
      "longitude_deg": 5.213419267359323,
      "height_km": 540.5990218830505,
      "semi_major_axis_km": 6917.897738279773,
      "eccentricity": 0.00012766,
      "inclination_deg": 53.2187,
      "raan_deg": 23.2003,
      "arg_perigee_deg": 86.2552,
      "mean_anomaly_deg": 273.8586,
      "mean_motion_rev_day": 15.08834324
    },
    {
      "epoch": "2026-04-05T04:14:27.637728Z",
      "apogee_km": 540.6445142363755,
      "perigee_km": 538.8137701405058,
      "latitude_deg": -3.4933924987723954e-05,
      "longitude_deg": 123.12465259435707,
      "height_km": 540.5646806841745,
      "semi_major_axis_km": 6917.86614218844,
      "eccentricity": 0.00013232,
      "inclination_deg": 53.2188,
      "raan_deg": 20.2259,
      "arg_perigee_deg": 86.2179,
      "mean_anomaly_deg": 273.8964,
      "mean_motion_rev_day": 15.08844661
    },
    {
      "epoch": "2026-04-05T18:32:54.212352Z",
      "apogee_km": 540.7441151730936,
      "perigee_km": 538.4003952774228,
      "latitude_deg": -2.686132328878912e-06,
      "longitude_deg": -94.74913539098607,
      "height_km": 540.0935820183792,
      "semi_major_axis_km": 6917.709255225258,
      "eccentricity": 0.0001694,
      "inclination_deg": 53.2192,
      "raan_deg": 17.5504,
      "arg_perigee_deg": 71.3752,
      "mean_anomaly_deg": 288.7424,
      "mean_motion_rev_day": 15.0889599
    },
    {
      "epoch": "2026-04-06T00:54:28.734048Z",
      "apogee_km": 540.7069116326611,
      "perigee_km": 538.8198467672237,
      "latitude_deg": 2.317609631719804e-05,
      "longitude_deg": 168.40696388186797,
      "height_km": 540.5697258447482,
      "semi_major_axis_km": 6917.900379199942,
      "eccentricity": 0.00013639,
      "inclination_deg": 53.219,
      "raan_deg": 16.3615,
      "arg_perigee_deg": 84.5552,
      "mean_anomaly_deg": 275.5596,
      "mean_motion_rev_day": 15.0883346
    },
    {
      "epoch": "2026-04-07T00:45:16.433280Z",
      "apogee_km": 540.7768976300613,
      "perigee_km": 538.7440042851222,
      "latitude_deg": 2.715576125410569e-05,
      "longitude_deg": 165.26797319208723,
      "height_km": 540.555652898491,
      "semi_major_axis_km": 6917.897450957591,
      "eccentricity": 0.00014693,
      "inclination_deg": 53.2186,
      "raan_deg": 11.9006,
      "arg_perigee_deg": 84.3265,
      "mean_anomaly_deg": 275.7895,
      "mean_motion_rev_day": 15.08834418
    },
    {
      "epoch": "2026-04-08T00:36:02.894400Z",
      "apogee_km": 540.6864865736197,
      "perigee_km": 538.7832416663632,
      "latitude_deg": 2.5680776414856825e-06,
      "longitude_deg": 162.1350337492339,
      "height_km": 540.535743216966,
      "semi_major_axis_km": 6917.871864119991,
      "eccentricity": 0.00013756,
      "inclination_deg": 53.2185,
      "raan_deg": 7.4406,
      "arg_perigee_deg": 84.2746,
      "mean_anomaly_deg": 275.8403,
      "mean_motion_rev_day": 15.08842789
    },
    {
      "epoch": "2026-04-09T09:59:09.140928Z",
      "apogee_km": 540.6544271659423,
      "perigee_km": 538.8400044938144,
      "latitude_deg": -6.774077885003172e-05,
      "longitude_deg": 13.74267401141539,
      "height_km": 540.5132024217411,
      "semi_major_axis_km": 6917.8842158298785,
      "eccentricity": 0.00013114,
      "inclination_deg": 53.2188,
      "raan_deg": 1.1954,
      "arg_perigee_deg": 81.7635,
      "mean_anomaly_deg": 278.3505,
      "mean_motion_rev_day": 15.08838748
    },
    {
      "epoch": "2026-04-10T09:49:56.270784Z",
      "apogee_km": 540.6833553581537,
      "perigee_km": 538.8113758488225,
      "latitude_deg": -2.8373886238355682e-05,
      "longitude_deg": 10.60688833055511,
      "height_km": 540.500869923779,
      "semi_major_axis_km": 6917.884365603488,
      "eccentricity": 0.0001353,
      "inclination_deg": 53.219,
      "raan_deg": 356.7353,
      "arg_perigee_deg": 81.2485,
      "mean_anomaly_deg": 278.866,
      "mean_motion_rev_day": 15.08838699
    },
    {
      "epoch": "2026-04-11T16:02:14.296992Z",
      "apogee_km": 540.0016669178358,
      "perigee_km": 539.3818294619987,
      "latitude_deg": -2.844865497699313e-05,
      "longitude_deg": -89.3577989420955,
      "height_km": 540.5640919865052,
      "semi_major_axis_km": 6917.828748189917,
      "eccentricity": 4.48e-05,
      "inclination_deg": 53.2213,
      "raan_deg": 351.0862,
      "arg_perigee_deg": 85.3737,
      "mean_anomaly_deg": 274.7306,
      "mean_motion_rev_day": 15.08856895
    }
  ]
}